TRANSPORTER-15 DK       
1 66771U 25276DK  25355.16431611  .00006011  00000+0  29514-3 0  9993
2 66771  97.4446  66.8260 0002880 119.4888 240.6633 15.18440944  3409
TRANSPORTER-15 DL       
1 66772U 25276DL  25355.16223573  .00008007  00000+0  38961-3 0  9993
2 66772  97.4446  66.8260 0002945 107.4330 252.7227 15.18649435  3400
TRANSPORTER-15 DM       
1 66773U 25276DM  25355.16324713  .00009400  00000+0  45872-3 0  9999
2 66773  97.4421  66.8241 0002725 105.7524 254.4011 15.18500807  3404
TRANSPORTER-15 DN       
1 66774U 25276DN  25355.16281100  .00007693  00000+0  37547-3 0  9994
2 66774  97.4426  66.8204 0002986 104.4923 255.6643 15.18555314  3404
TRANSPORTER-15 DP       
1 66775U 25276DP  25355.16211558  .00014509  00000+0  70313-3 0  9997
2 66775  97.4338  66.8018 0003304  77.6101 282.5503 15.18630257  3408
TRANSPORTER-15 DQ       
1 66776U 25276DQ  25355.16180358  .00007293  00000+0  35510-3 0  9993
2 66776  97.4386  66.8120 0002853  87.8499 272.3062 15.18658115  3407
TRANSPORTER-15 DR       
1 66777U 25276DR  25355.15974977  .00009093  00000+0  43914-3 0  9998
2 66777  97.4476  66.8386 0003378 116.5410 243.6171 15.18872016  3408
STARLINK-35867          
1 66791U 25278A   25355.16668980 -.01969677  00000+0 -27415-1 0  9993
2 66791  42.9991 201.0282 0001667 263.2153  78.6216 15.59558690  4313
STARLINK-35990          
1 66792U 25278B   25355.16668980 -.01964851  00000+0 -27340-1 0  9990
2 66792  42.9994 201.0237 0001671 266.5045  77.2476 15.59557694  4314
STARLINK-36051          
1 66793U 25278C   25355.16668980 -.01966957  00000+0 -27371-1 0  9994
2 66793  42.9996 201.0143 0001676 265.8285  81.7565 15.59559433  4217
STARLINK-36062          
1 66794U 25278D   25355.16668980 -.01967591  00000+0 -27383-1 0  9993
2 66794  42.9993 201.0184 0001594 266.6635  79.0064 15.59558359  4318
STARLINK-36047          
1 66795U 25278E   25355.16668980 -.01962273  00000+0 -27302-1 0  9997
2 66795  42.9992 201.0095 0001691 262.4050  87.1007 15.59554167  4211
