CCSDS_OMM_VERS = 2.0
CREATION_DATE  = 
ORIGINATOR     = 

OBJECT_NAME    = TRANSPORTER-15 DK
OBJECT_ID      = 2025-276DK
CENTER_NAME    = EARTH
REF_FRAME      = TEME
TIME_SYSTEM    = UTC
MEAN_ELEMENT_THEORY = SGP/SGP4

EPOCH          = 2025-12-21T03:56:36.911904
MEAN_MOTION    = 15.18440944
ECCENTRICITY   = .000288
INCLINATION    = 97.4446
RA_OF_ASC_NODE = 66.8260
ARG_OF_PERICENTER = 119.4888
MEAN_ANOMALY   = 240.6633

EPHEMERIS_TYPE = 0
CLASSIFICATION_TYPE = U
NORAD_CAT_ID   = 66771
ELEMENT_SET_NO = 999
REV_AT_EPOCH   = 340
BSTAR          = .29514E-3
MEAN_MOTION_DOT = .6011E-4
MEAN_MOTION_DDOT = 0

CCSDS_OMM_VERS = 2.0
CREATION_DATE  = 
ORIGINATOR     = 

OBJECT_NAME    = TRANSPORTER-15 DL
OBJECT_ID      = 2025-276DL
CENTER_NAME    = EARTH
REF_FRAME      = TEME
TIME_SYSTEM    = UTC
MEAN_ELEMENT_THEORY = SGP/SGP4

EPOCH          = 2025-12-21T03:53:37.167072
MEAN_MOTION    = 15.18649435
ECCENTRICITY   = .0002945
INCLINATION    = 97.4446
RA_OF_ASC_NODE = 66.8260
ARG_OF_PERICENTER = 107.4330
MEAN_ANOMALY   = 252.7227

EPHEMERIS_TYPE = 0
CLASSIFICATION_TYPE = U
NORAD_CAT_ID   = 66772
ELEMENT_SET_NO = 999
REV_AT_EPOCH   = 340
BSTAR          = .38961E-3
MEAN_MOTION_DOT = .8007E-4
MEAN_MOTION_DDOT = 0

CCSDS_OMM_VERS = 2.0
CREATION_DATE  = 
ORIGINATOR     = 

OBJECT_NAME    = TRANSPORTER-15 DM
OBJECT_ID      = 2025-276DM
CENTER_NAME    = EARTH
REF_FRAME      = TEME
TIME_SYSTEM    = UTC
MEAN_ELEMENT_THEORY = SGP/SGP4

EPOCH          = 2025-12-21T03:55:04.552032
MEAN_MOTION    = 15.18500807
ECCENTRICITY   = .0002725
INCLINATION    = 97.4421
RA_OF_ASC_NODE = 66.8241
ARG_OF_PERICENTER = 105.7524
MEAN_ANOMALY   = 254.4011

EPHEMERIS_TYPE = 0
CLASSIFICATION_TYPE = U
NORAD_CAT_ID   = 66773
ELEMENT_SET_NO = 999
REV_AT_EPOCH   = 340
BSTAR          = .45872E-3
MEAN_MOTION_DOT = .94E-4
MEAN_MOTION_DDOT = 0

CCSDS_OMM_VERS = 2.0
CREATION_DATE  = 
ORIGINATOR     = 

OBJECT_NAME    = TRANSPORTER-15 DN
OBJECT_ID      = 2025-276DN
CENTER_NAME    = EARTH
REF_FRAME      = TEME
TIME_SYSTEM    = UTC
MEAN_ELEMENT_THEORY = SGP/SGP4

EPOCH          = 2025-12-21T03:54:26.870400
MEAN_MOTION    = 15.18555314
ECCENTRICITY   = .0002986
INCLINATION    = 97.4426
RA_OF_ASC_NODE = 66.8204
ARG_OF_PERICENTER = 104.4923
MEAN_ANOMALY   = 255.6643

EPHEMERIS_TYPE = 0
CLASSIFICATION_TYPE = U
NORAD_CAT_ID   = 66774
ELEMENT_SET_NO = 999
REV_AT_EPOCH   = 340
BSTAR          = .37547E-3
MEAN_MOTION_DOT = .7693E-4
MEAN_MOTION_DDOT = 0

CCSDS_OMM_VERS = 2.0
CREATION_DATE  = 
ORIGINATOR     = 

OBJECT_NAME    = TRANSPORTER-15 DP
OBJECT_ID      = 2025-276DP
CENTER_NAME    = EARTH
REF_FRAME      = TEME
TIME_SYSTEM    = UTC
MEAN_ELEMENT_THEORY = SGP/SGP4

EPOCH          = 2025-12-21T03:53:26.786112
MEAN_MOTION    = 15.18630257
ECCENTRICITY   = .0003304
INCLINATION    = 97.4338
RA_OF_ASC_NODE = 66.8018
ARG_OF_PERICENTER = 77.6101
MEAN_ANOMALY   = 282.5503

EPHEMERIS_TYPE = 0
CLASSIFICATION_TYPE = U
NORAD_CAT_ID   = 66775
ELEMENT_SET_NO = 999
REV_AT_EPOCH   = 340
BSTAR          = .70313E-3
MEAN_MOTION_DOT = .14509E-3
MEAN_MOTION_DDOT = 0

CCSDS_OMM_VERS = 2.0
CREATION_DATE  = 
ORIGINATOR     = 

OBJECT_NAME    = TRANSPORTER-15 DQ
OBJECT_ID      = 2025-276DQ
CENTER_NAME    = EARTH
REF_FRAME      = TEME
TIME_SYSTEM    = UTC
MEAN_ELEMENT_THEORY = SGP/SGP4

EPOCH          = 2025-12-21T03:52:59.829312
MEAN_MOTION    = 15.18658115
ECCENTRICITY   = .0002853
INCLINATION    = 97.4386
RA_OF_ASC_NODE = 66.8120
ARG_OF_PERICENTER = 87.8499
MEAN_ANOMALY   = 272.3062

EPHEMERIS_TYPE = 0
CLASSIFICATION_TYPE = U
NORAD_CAT_ID   = 66776
ELEMENT_SET_NO = 999
REV_AT_EPOCH   = 340
BSTAR          = .3551E-3
MEAN_MOTION_DOT = .7293E-4
MEAN_MOTION_DDOT = 0

CCSDS_OMM_VERS = 2.0
CREATION_DATE  = 
ORIGINATOR     = 

OBJECT_NAME    = TRANSPORTER-15 DR
OBJECT_ID      = 2025-276DR
CENTER_NAME    = EARTH
REF_FRAME      = TEME
TIME_SYSTEM    = UTC
MEAN_ELEMENT_THEORY = SGP/SGP4

EPOCH          = 2025-12-21T03:50:02.380128
MEAN_MOTION    = 15.18872016
ECCENTRICITY   = .0003378
INCLINATION    = 97.4476
RA_OF_ASC_NODE = 66.8386
ARG_OF_PERICENTER = 116.5410
MEAN_ANOMALY   = 243.6171

EPHEMERIS_TYPE = 0
CLASSIFICATION_TYPE = U
NORAD_CAT_ID   = 66777
ELEMENT_SET_NO = 999
REV_AT_EPOCH   = 340
BSTAR          = .43914E-3
MEAN_MOTION_DOT = .9093E-4
MEAN_MOTION_DDOT = 0

CCSDS_OMM_VERS = 2.0
CREATION_DATE  = 
ORIGINATOR     = 

OBJECT_NAME    = STARLINK-35867
OBJECT_ID      = 2025-278A
CENTER_NAME    = EARTH
REF_FRAME      = TEME
TIME_SYSTEM    = UTC
MEAN_ELEMENT_THEORY = SGP/SGP4

EPOCH          = 2025-12-21T04:00:01.998720
MEAN_MOTION    = 15.59558690
ECCENTRICITY   = .0001667
INCLINATION    = 42.9991
RA_OF_ASC_NODE = 201.0282
ARG_OF_PERICENTER = 263.2153
MEAN_ANOMALY   = 78.6216

EPHEMERIS_TYPE = 0
CLASSIFICATION_TYPE = U
NORAD_CAT_ID   = 66791
ELEMENT_SET_NO = 999
REV_AT_EPOCH   = 431
BSTAR          = -.27415E-1
MEAN_MOTION_DOT = -.1969677E-1
MEAN_MOTION_DDOT = 0

CCSDS_OMM_VERS = 2.0
CREATION_DATE  = 
ORIGINATOR     = 

OBJECT_NAME    = STARLINK-35990
OBJECT_ID      = 2025-278B
CENTER_NAME    = EARTH
REF_FRAME      = TEME
TIME_SYSTEM    = UTC
MEAN_ELEMENT_THEORY = SGP/SGP4

EPOCH          = 2025-12-21T04:00:01.998720
MEAN_MOTION    = 15.59557694
ECCENTRICITY   = .0001671
INCLINATION    = 42.9994
RA_OF_ASC_NODE = 201.0237
ARG_OF_PERICENTER = 266.5045
MEAN_ANOMALY   = 77.2476

EPHEMERIS_TYPE = 0
CLASSIFICATION_TYPE = U
NORAD_CAT_ID   = 66792
ELEMENT_SET_NO = 999
REV_AT_EPOCH   = 431
BSTAR          = -.2734E-1
MEAN_MOTION_DOT = -.1964851E-1
MEAN_MOTION_DDOT = 0

CCSDS_OMM_VERS = 2.0
CREATION_DATE  = 
ORIGINATOR     = 

OBJECT_NAME    = STARLINK-36051
OBJECT_ID      = 2025-278C
CENTER_NAME    = EARTH
REF_FRAME      = TEME
TIME_SYSTEM    = UTC
MEAN_ELEMENT_THEORY = SGP/SGP4

EPOCH          = 2025-12-21T04:00:01.998720
MEAN_MOTION    = 15.59559433
ECCENTRICITY   = .0001676
INCLINATION    = 42.9996
RA_OF_ASC_NODE = 201.0143
ARG_OF_PERICENTER = 265.8285
MEAN_ANOMALY   = 81.7565

EPHEMERIS_TYPE = 0
CLASSIFICATION_TYPE = U
NORAD_CAT_ID   = 66793
ELEMENT_SET_NO = 999
REV_AT_EPOCH   = 421
BSTAR          = -.27371E-1
MEAN_MOTION_DOT = -.1966957E-1
MEAN_MOTION_DDOT = 0

CCSDS_OMM_VERS = 2.0
CREATION_DATE  = 
ORIGINATOR     = 

OBJECT_NAME    = STARLINK-36062
OBJECT_ID      = 2025-278D
CENTER_NAME    = EARTH
REF_FRAME      = TEME
TIME_SYSTEM    = UTC
MEAN_ELEMENT_THEORY = SGP/SGP4

EPOCH          = 2025-12-21T04:00:01.998720
MEAN_MOTION    = 15.59558359
ECCENTRICITY   = .0001594
INCLINATION    = 42.9993
RA_OF_ASC_NODE = 201.0184
ARG_OF_PERICENTER = 266.6635
MEAN_ANOMALY   = 79.0064

EPHEMERIS_TYPE = 0
CLASSIFICATION_TYPE = U
NORAD_CAT_ID   = 66794
ELEMENT_SET_NO = 999
REV_AT_EPOCH   = 431
BSTAR          = -.27383E-1
MEAN_MOTION_DOT = -.1967591E-1
MEAN_MOTION_DDOT = 0

CCSDS_OMM_VERS = 2.0
CREATION_DATE  = 
ORIGINATOR     = 

OBJECT_NAME    = STARLINK-36047
OBJECT_ID      = 2025-278E
CENTER_NAME    = EARTH
REF_FRAME      = TEME
TIME_SYSTEM    = UTC
MEAN_ELEMENT_THEORY = SGP/SGP4

EPOCH          = 2025-12-21T04:00:01.998720
MEAN_MOTION    = 15.59554167
ECCENTRICITY   = .0001691
INCLINATION    = 42.9992
RA_OF_ASC_NODE = 201.0095
ARG_OF_PERICENTER = 262.4050
MEAN_ANOMALY   = 87.1007

EPHEMERIS_TYPE = 0
CLASSIFICATION_TYPE = U
NORAD_CAT_ID   = 66795
ELEMENT_SET_NO = 999
REV_AT_EPOCH   = 421
BSTAR          = -.27302E-1
MEAN_MOTION_DOT = -.1962273E-1
MEAN_MOTION_DDOT = 0

